{
  "type": "FeatureCollection",
  "features": [
    {
      "type": "Feature",
      "properties": {
        "norad_id": 52912,
        "name": "GAOFEN-12 03",
        "group": "resource",
        "lat": 56.669610440259035,
        "lon": 74.5744255429737,
        "alt_km": 624.6300583226775,
        "timestamp": "2025-12-21T07:34:34.198326+00:00",
        "meta_object_name": "GAOFEN-12 03",
        "meta_object_id": "2022-069A",
        "meta_epoch": "2025-12-20T22:54:35.273088",
        "meta_mean_motion": 14.79626592,
        "meta_eccentricity": 0.00019742,
        "meta_inclination": 97.8489,
        "meta_ra_of_asc_node": 242.1135,
        "meta_arg_of_pericenter": 52.719,
        "meta_mean_anomaly": 307.4202,
        "meta_ephemeris_type": 0,
        "meta_classification_type": "U",
        "meta_norad_cat_id": 52912,
        "meta_element_set_no": 999,
        "meta_rev_at_epoch": 18825,
        "meta_bstar": 9.6559827e-05,
        "meta_mean_motion_dot": 6.73e-06,
        "meta_mean_motion_ddot": 0,
        "tle_line1": "1 52912U 22069A   25354.95457492  .00000673  00000+0  96560-4 0  9997",
        "tle_line2": "2 52912  97.8489 242.1135 0001974  52.7190 307.4202 14.79626592188252"
      },
      "geometry": {
        "type": "Point",
        "coordinates": [
          74.5744255429737,
          56.669610440259035
        ]
      }
    },
    {
      "type": "Feature",
      "properties": {
        "norad_id": 54754,
        "name": "SWOT",
        "group": "resource",
        "lat": 7.594589626560168,
        "lon": 93.73414339323266,
        "alt_km": 894.8836303506832,
        "timestamp": "2025-12-21T07:34:34.198336+00:00",
        "meta_object_name": "SWOT",
        "meta_object_id": "2022-173A",
        "meta_epoch": "2025-12-20T22:10:56.490816",
        "meta_mean_motion": 14.00167979,
        "meta_eccentricity": 3.579e-05,
        "meta_inclination": 77.6109,
        "meta_ra_of_asc_node": 275.9417,
        "meta_arg_of_pericenter": 90.9017,
        "meta_mean_anomaly": 269.2175,
        "meta_ephemeris_type": 0,
        "meta_classification_type": "U",
        "meta_norad_cat_id": 54754,
        "meta_element_set_no": 999,
        "meta_rev_at_epoch": 15420,
        "meta_bstar": 3.119398e-06,
        "meta_mean_motion_dot": 2e-08,
        "meta_mean_motion_ddot": 0,
        "tle_line1": "1 54754U 22173A   25354.92426494  .00000002  00000+0  31194-5 0  9993",
        "tle_line2": "2 54754  77.6109 275.9417 0000357  90.9017 269.2175 14.00167979154201"
      },
      "geometry": {
        "type": "Point",
        "coordinates": [
          93.73414339323266,
          7.594589626560168
        ]
      }
    },
    {
      "type": "Feature",
      "properties": {
        "norad_id": 57654,
        "name": "GAOFEN-12 04",
        "group": "resource",
        "lat": -63.97622489567606,
        "lon": -72.5067518770146,
        "alt_km": 638.0866689244394,
        "timestamp": "2025-12-21T07:34:34.198345+00:00",
        "meta_object_name": "GAOFEN-12 04",
        "meta_object_id": "2023-123A",
        "meta_epoch": "2025-12-20T22:07:57.385344",
        "meta_mean_motion": 14.79721209,
        "meta_eccentricity": 0.00012262,
        "meta_inclination": 97.9127,
        "meta_ra_of_asc_node": 270.5554,
        "meta_arg_of_pericenter": 77.5754,
        "meta_mean_anomaly": 282.5595,
        "meta_ephemeris_type": 0,
        "meta_classification_type": "U",
        "meta_norad_cat_id": 57654,
        "meta_element_set_no": 999,
        "meta_rev_at_epoch": 12626,
        "meta_bstar": 0.00012847484,
        "meta_mean_motion_dot": 9.14e-06,
        "meta_mean_motion_ddot": 0,
        "tle_line1": "1 57654U 23123A   25354.92219196  .00000914  00000+0  12847-3 0  9994",
        "tle_line2": "2 57654  97.9127 270.5554 0001226  77.5754 282.5595 14.79721209126263"
      },
      "geometry": {
        "type": "Point",
        "coordinates": [
          -72.5067518770146,
          -63.97622489567606
        ]
      }
    },
    {
      "type": "Feature",
      "properties": {
        "norad_id": 59065,
        "name": "PARS 1",
        "group": "resource",
        "lat": 61.828000249096085,
        "lon": -47.73914660278131,
        "alt_km": 428.88105865698617,
        "timestamp": "2025-12-21T07:34:34.198354+00:00",
        "meta_object_name": "PARS 1",
        "meta_object_id": "2024-039Q",
        "meta_epoch": "2025-12-20T21:57:20.486016",
        "meta_mean_motion": 15.41146234,
        "meta_eccentricity": 0.00120096,
        "meta_inclination": 97.4642,
        "meta_ra_of_asc_node": 326.0217,
        "meta_arg_of_pericenter": 47.3824,
        "meta_mean_anomaly": 312.8433,
        "meta_ephemeris_type": 0,
        "meta_classification_type": "U",
        "meta_norad_cat_id": 59065,
        "meta_element_set_no": 999,
        "meta_rev_at_epoch": 10114,
        "meta_bstar": 0.00020975834,
        "meta_mean_motion_dot": 8.624e-05,
        "meta_mean_motion_ddot": 0,
        "tle_line1": "1 59065U 24039Q   25354.91482044  .00008624  00000+0  20976-3 0  9990",
        "tle_line2": "2 59065  97.4642 326.0217 0012009  47.3824 312.8433 15.41146234101142"
      },
      "geometry": {
        "type": "Point",
        "coordinates": [
          -47.73914660278131,
          61.828000249096085
        ]
      }
    },
    {
      "type": "Feature",
      "properties": {
        "norad_id": 59371,
        "name": "RESURS-P 4",
        "group": "resource",
        "lat": -69.99424281005824,
        "lon": -38.046000631479416,
        "alt_km": 477.1725636515948,
        "timestamp": "2025-12-21T07:34:34.198363+00:00",
        "meta_object_name": "RESURS-P 4",
        "meta_object_id": "2024-061A",
        "meta_epoch": "2025-12-20T22:28:56.363808",
        "meta_mean_motion": 15.32144967,
        "meta_eccentricity": 9.752e-05,
        "meta_inclination": 97.2558,
        "meta_ra_of_asc_node": 301.0989,
        "meta_arg_of_pericenter": 63.1079,
        "meta_mean_anomaly": 297.0263,
        "meta_ephemeris_type": 0,
        "meta_classification_type": "U",
        "meta_norad_cat_id": 59371,
        "meta_element_set_no": 999,
        "meta_rev_at_epoch": 9646,
        "meta_bstar": 9.4846505e-05,
        "meta_mean_motion_dot": 2.868e-05,
        "meta_mean_motion_ddot": 0,
        "tle_line1": "1 59371U 24061A   25354.93676347  .00002868  00000+0  94847-4 0  9991",
        "tle_line2": "2 59371  97.2558 301.0989 0000975  63.1079 297.0263 15.32144967 96466"
      },
      "geometry": {
        "type": "Point",
        "coordinates": [
          -38.046000631479416,
          -69.99424281005824
        ]
      }
    },
    {
      "type": "Feature",
      "properties": {
        "norad_id": 59625,
        "name": "LEGION 1",
        "group": "resource",
        "lat": 32.77403715222267,
        "lon": 65.00199698131854,
        "alt_km": 515.3924719867136,
        "timestamp": "2025-12-21T07:34:34.198372+00:00",
        "meta_object_name": "LEGION 1",
        "meta_object_id": "2024-081A",
        "meta_epoch": "2025-12-20T21:55:45.992064",
        "meta_mean_motion": 15.16552273,
        "meta_eccentricity": 0.00036242,
        "meta_inclination": 97.5207,
        "meta_ra_of_asc_node": 69.4827,
        "meta_arg_of_pericenter": 280.1768,
        "meta_mean_anomaly": 79.9056,
        "meta_ephemeris_type": 0,
        "meta_classification_type": "U",
        "meta_norad_cat_id": 59625,
        "meta_element_set_no": 999,
        "meta_rev_at_epoch": 9051,
        "meta_bstar": 0.00016819438,
        "meta_mean_motion_dot": 3.214e-05,
        "meta_mean_motion_ddot": 0,
        "tle_line1": "1 59625U 24081A   25354.91372676  .00003214  00000+0  16819-3 0  9999",
        "tle_line2": "2 59625  97.5207  69.4827 0003624 280.1768  79.9056 15.16552273 90510"
      },
      "geometry": {
        "type": "Point",
        "coordinates": [
          65.00199698131854,
          32.77403715222267
        ]
      }
    },
    {
      "type": "Feature",
      "properties": {
        "norad_id": 59626,
        "name": "LEGION 2",
        "group": "resource",
        "lat": -33.04900826521221,
        "lon": -114.9619937828217,
        "alt_km": 519.5984768409198,
        "timestamp": "2025-12-21T07:34:34.198381+00:00",
        "meta_object_name": "LEGION 2",
        "meta_object_id": "2024-081B",
        "meta_epoch": "2025-12-20T22:43:13.873440",
        "meta_mean_motion": 15.16566512,
        "meta_eccentricity": 0.0005635,
        "meta_inclination": 97.521,
        "meta_ra_of_asc_node": 69.6033,
        "meta_arg_of_pericenter": 257.7014,
        "meta_mean_anomaly": 102.3588,
        "meta_ephemeris_type": 0,
        "meta_classification_type": "U",
        "meta_norad_cat_id": 59626,
        "meta_element_set_no": 999,
        "meta_rev_at_epoch": 9052,
        "meta_bstar": 0.00017870764,
        "meta_mean_motion_dot": 3.421e-05,
        "meta_mean_motion_ddot": 0,
        "tle_line1": "1 59626U 24081B   25354.94668835  .00003421  00000+0  17871-3 0  9997",
        "tle_line2": "2 59626  97.5210  69.6033 0005635 257.7014 102.3588 15.16566512 90527"
      },
      "geometry": {
        "type": "Point",
        "coordinates": [
          -114.9619937828217,
          -33.04900826521221
        ]
      }
    }
  ]
}